[{"OBJECT_NAME":"GLOBALSTAR M078","OBJECT_ID":"2013-005E","EPOCH":"2026-03-09T17:55:07.351968","MEAN_MOTION":12.6227602,"ECCENTRICITY":0.00014953,"INCLINATION":51.9859,"RA_OF_ASC_NODE":226.4351,"ARG_OF_PERICENTER":72.1047,"MEAN_ANOMALY":287.9982,"EPHEMERIS_TYPE":0,"CLASSIFICATION_TYPE":"U","NORAD_CAT_ID":39076,"ELEMENT_SET_NO":999,"REV_AT_EPOCH":60345,"BSTAR":0.00010718897,"MEAN_MOTION_DOT":-8.5e-7,"MEAN_MOTION_DDOT":0},{"OBJECT_NAME":"COSMOS 2255","OBJECT_ID":"1993-038D","EPOCH":"2026-03-09T16:31:10.525728","MEAN_MOTION":12.6332591,"ECCENTRICITY":0.00053312,"INCLINATION":82.5822,"RA_OF_ASC_NODE":293.1919,"ARG_OF_PERICENTER":201.9654,"MEAN_ANOMALY":221.4802,"EPHEMERIS_TYPE":0,"CLASSIFICATION_TYPE":"U","NORAD_CAT_ID":22690,"ELEMENT_SET_NO":999,"REV_AT_EPOCH":50866,"BSTAR":1.0964091e-5,"MEAN_MOTION_DOT":1.3e-7,"MEAN_MOTION_DDOT":0}]
